{
  "type": "FeatureCollection",
  "features": [
    {
      "type": "Feature",
      "properties": {
        "norad_id": 30243,
        "name": "FENGYUN 1C DEB",
        "group": "fengyun-1c-debris",
        "lat": 41.17911234462755,
        "lon": -178.31230994084402,
        "alt_km": 836.4833739338892,
        "timestamp": "2025-12-08T10:52:03.222523+00:00",
        "meta_object_name": "FENGYUN 1C DEB",
        "meta_object_id": "1999-025XC",
        "meta_epoch": "2025-12-07T19:45:32.047776",
        "meta_mean_motion": 14.1301162,
        "meta_eccentricity": 0.00129239,
        "meta_inclination": 98.6934,
        "meta_ra_of_asc_node": 353.3847,
        "meta_arg_of_pericenter": 132.222,
        "meta_mean_anomaly": 45.3965,
        "meta_ephemeris_type": 0,
        "meta_classification_type": "U",
        "meta_norad_cat_id": 30243,
        "meta_element_set_no": 999,
        "meta_rev_at_epoch": 97209,
        "meta_bstar": 0.00062977373,
        "meta_mean_motion_dot": 1.133e-05,
        "meta_mean_motion_ddot": 0,
        "tle_line1": "1 30243U 99025XC  25341.82328759  .00001133  00000+0  62977-3 0  9997",
        "tle_line2": "2 30243  98.6934 353.3847 0012923 132.2220  45.3965 14.13011620972093"
      },
      "geometry": {
        "type": "Point",
        "coordinates": [
          -178.31230994084402,
          41.17911234462755
        ]
      }
    },
    {
      "type": "Feature",
      "properties": {
        "norad_id": 30244,
        "name": "FENGYUN 1C DEB",
        "group": "fengyun-1c-debris",
        "lat": -56.77143165835368,
        "lon": -113.7692850871374,
        "alt_km": 842.9297128815115,
        "timestamp": "2025-12-08T10:52:03.222533+00:00",
        "meta_object_name": "FENGYUN 1C DEB",
        "meta_object_id": "1999-025XD",
        "meta_epoch": "2025-12-07T23:19:58.516320",
        "meta_mean_motion": 14.15003844,
        "meta_eccentricity": 0.0009779,
        "meta_inclination": 99.1435,
        "meta_ra_of_asc_node": 231.5064,
        "meta_arg_of_pericenter": 328.7555,
        "meta_mean_anomaly": 46.5639,
        "meta_ephemeris_type": 0,
        "meta_classification_type": "U",
        "meta_norad_cat_id": 30244,
        "meta_element_set_no": 999,
        "meta_rev_at_epoch": 97279,
        "meta_bstar": 0.00061152314,
        "meta_mean_motion_dot": 1.137e-05,
        "meta_mean_motion_ddot": 0,
        "tle_line1": "1 30244U 99025XD  25341.97220505  .00001137  00000+0  61152-3 0  9992",
        "tle_line2": "2 30244  99.1435 231.5064 0009779 328.7555  46.5639 14.15003844972791"
      },
      "geometry": {
        "type": "Point",
        "coordinates": [
          -113.7692850871374,
          -56.77143165835368
        ]
      }
    },
    {
      "type": "Feature",
      "properties": {
        "norad_id": 30245,
        "name": "FENGYUN 1C DEB",
        "group": "fengyun-1c-debris",
        "lat": -78.48356057146042,
        "lon": 20.493727057254663,
        "alt_km": 837.1114438044015,
        "timestamp": "2025-12-08T10:52:03.222544+00:00",
        "meta_object_name": "FENGYUN 1C DEB",
        "meta_object_id": "1999-025XE",
        "meta_epoch": "2025-12-07T23:04:15.568320",
        "meta_mean_motion": 13.79049501,
        "meta_eccentricity": 0.01932762,
        "meta_inclination": 98.8887,
        "meta_ra_of_asc_node": 329.8539,
        "meta_arg_of_pericenter": 263.8743,
        "meta_mean_anomaly": 94.036,
        "meta_ephemeris_type": 0,
        "meta_classification_type": "U",
        "meta_norad_cat_id": 30245,
        "meta_element_set_no": 999,
        "meta_rev_at_epoch": 94628,
        "meta_bstar": 0.0017152961,
        "meta_mean_motion_dot": 1.973e-05,
        "meta_mean_motion_ddot": 0,
        "tle_line1": "1 30245U 99025XE  25341.96129130  .00001973  00000+0  17153-2 0  9993",
        "tle_line2": "2 30245  98.8887 329.8539 0193276 263.8743  94.0360 13.79049501946284"
      },
      "geometry": {
        "type": "Point",
        "coordinates": [
          20.493727057254663,
          -78.48356057146042
        ]
      }
    },
    {
      "type": "Feature",
      "properties": {
        "norad_id": 30246,
        "name": "FENGYUN 1C DEB",
        "group": "fengyun-1c-debris",
        "lat": -57.08365708492977,
        "lon": 140.38919214307472,
        "alt_km": 1399.475984801461,
        "timestamp": "2025-12-08T10:52:03.222554+00:00",
        "meta_object_name": "FENGYUN 1C DEB",
        "meta_object_id": "1999-025XF",
        "meta_epoch": "2025-12-07T23:12:18.437184",
        "meta_mean_motion": 13.37015484,
        "meta_eccentricity": 0.0370693,
        "meta_inclination": 98.6728,
        "meta_ra_of_asc_node": 126.3369,
        "meta_arg_of_pericenter": 111.6804,
        "meta_mean_anomaly": 13.4201,
        "meta_ephemeris_type": 0,
        "meta_classification_type": "U",
        "meta_norad_cat_id": 30246,
        "meta_element_set_no": 999,
        "meta_rev_at_epoch": 92076,
        "meta_bstar": 0.00041436798,
        "meta_mean_motion_dot": 2.88e-06,
        "meta_mean_motion_ddot": 0,
        "tle_line1": "1 30246U 99025XF  25341.96688006  .00000288  00000+0  41437-3 0  9997",
        "tle_line2": "2 30246  98.6728 126.3369 0370693 111.6804  13.4201 13.37015484920767"
      },
      "geometry": {
        "type": "Point",
        "coordinates": [
          140.38919214307472,
          -57.08365708492977
        ]
      }
    },
    {
      "type": "Feature",
      "properties": {
        "norad_id": 30247,
        "name": "FENGYUN 1C DEB",
        "group": "fengyun-1c-debris",
        "lat": -72.44868077697731,
        "lon": -82.9825805403142,
        "alt_km": 676.722931990822,
        "timestamp": "2025-12-08T10:52:03.222564+00:00",
        "meta_object_name": "FENGYUN 1C DEB",
        "meta_object_id": "1999-025XG",
        "meta_epoch": "2025-12-07T17:12:54.752832",
        "meta_mean_motion": 14.58861094,
        "meta_eccentricity": 0.0195267,
        "meta_inclination": 98.2764,
        "meta_ra_of_asc_node": 248.8829,
        "meta_arg_of_pericenter": 7.5617,
        "meta_mean_anomaly": 19.5716,
        "meta_ephemeris_type": 0,
        "meta_classification_type": "U",
        "meta_norad_cat_id": 30247,
        "meta_element_set_no": 999,
        "meta_rev_at_epoch": 97209,
        "meta_bstar": 0.0052707432,
        "meta_mean_motion_dot": 0.00032255,
        "meta_mean_motion_ddot": 0,
        "tle_line1": "1 30247U 99025XG  25341.71730038  .00032255  00000+0  52707-2 0  9994",
        "tle_line2": "2 30247  98.2764 248.8829 0195267   7.5617  19.5716 14.58861094972093"
      },
      "geometry": {
        "type": "Point",
        "coordinates": [
          -82.9825805403142,
          -72.44868077697731
        ]
      }
    },
    {
      "type": "Feature",
      "properties": {
        "norad_id": 30248,
        "name": "FENGYUN 1C DEB",
        "group": "fengyun-1c-debris",
        "lat": -37.60652817559678,
        "lon": 173.25565511332942,
        "alt_km": 721.8672398198041,
        "timestamp": "2025-12-08T10:52:03.222575+00:00",
        "meta_object_name": "FENGYUN 1C DEB",
        "meta_object_id": "1999-025XH",
        "meta_epoch": "2025-12-07T11:59:56.040288",
        "meta_mean_motion": 14.58881413,
        "meta_eccentricity": 0.00289202,
        "meta_inclination": 99.0977,
        "meta_ra_of_asc_node": 165.1228,
        "meta_arg_of_pericenter": 167.2428,
        "meta_mean_anomaly": 192.9507,
        "meta_ephemeris_type": 0,
        "meta_classification_type": "U",
        "meta_norad_cat_id": 30248,
        "meta_element_set_no": 999,
        "meta_rev_at_epoch": 97352,
        "meta_bstar": 0.0063273602,
        "meta_mean_motion_dot": 0.00029876,
        "meta_mean_motion_ddot": 0,
        "tle_line1": "1 30248U 99025XH  25341.49995417  .00029876  00000+0  63274-2 0  9990",
        "tle_line2": "2 30248  99.0977 165.1228 0028920 167.2428 192.9507 14.58881413973528"
      },
      "geometry": {
        "type": "Point",
        "coordinates": [
          173.25565511332942,
          -37.60652817559678
        ]
      }
    },
    {
      "type": "Feature",
      "properties": {
        "norad_id": 30249,
        "name": "FENGYUN 1C DEB",
        "group": "fengyun-1c-debris",
        "lat": 51.421567400133654,
        "lon": 135.1382932589642,
        "alt_km": 677.9928375612935,
        "timestamp": "2025-12-08T10:52:03.222587+00:00",
        "meta_object_name": "FENGYUN 1C DEB",
        "meta_object_id": "1999-025XJ",
        "meta_epoch": "2025-12-07T23:39:26.614080",
        "meta_mean_motion": 14.57438974,
        "meta_eccentricity": 0.0026329,
        "meta_inclination": 98.9596,
        "meta_ra_of_asc_node": 146.0433,
        "meta_arg_of_pericenter": 56.9913,
        "meta_mean_anomaly": 66.0945,
        "meta_ephemeris_type": 0,
        "meta_classification_type": "U",
        "meta_norad_cat_id": 30249,
        "meta_element_set_no": 999,
        "meta_rev_at_epoch": 97494,
        "meta_bstar": 0.0043137413,
        "meta_mean_motion_dot": 0.00019673,
        "meta_mean_motion_ddot": 0,
        "tle_line1": "1 30249U 99025XJ  25341.98572470  .00019673  00000+0  43137-2 0  9995",
        "tle_line2": "2 30249  98.9596 146.0433 0026329  56.9913  66.0945 14.57438974974947"
      },
      "geometry": {
        "type": "Point",
        "coordinates": [
          135.1382932589642,
          51.421567400133654
        ]
      }
    }
  ]
}